NORAD_CAT_ID,OBJECT_NAME,OBJECT_TYPE,EPOCH,MEAN_MOTION,ECCENTRICITY,INCLINATION,RA_OF_ASC_NODE,ARG_OF_PERICENTER,MEAN_ANOMALY,BSTAR,MEAN_MOTION_DOT,MEAN_MOTION_DDOT,TLE_LINE0,TLE_LINE1,TLE_LINE2,SEMIMAJOR_AXIS,PERIOD,APOGEE,PERIGEE,DECAYED
53935.0,STARLINK-5000,PAYLOAD,2022-10-09 14:00:01,15.73197205,0.000108,53.2186,180.6069,103.8564,148.7869,0.00021249,0.00029302,0.0,0 STARLINK-5000,1 53935U 22119BB  22282.58334491  .00029302  00000-0  21249-3 0  9990,2 53935  53.2186 180.6069 0001080 103.8564 148.7869 15.73197205  1305,6727.903,91.533,350.495,349.042,0.0
53935.0,STARLINK-5000,PAYLOAD,2022-10-09 22:00:00,15.73238319,0.0001107,53.2187,178.9587,98.4552,243.1234,-0.00071049,-0.00099323,0.0,0 STARLINK-5000,1 53935U 22119BB  22282.91667824 -.00099323  00000-0 -71049-3 0  9991,2 53935  53.2187 178.9587 0001107  98.4552 243.1234 15.73238319  2788,6727.786,91.531,350.396,348.906,0.0
53935.0,STARLINK-5000,PAYLOAD,2022-10-10 14:00:01,15.73215391,0.0001041,53.2178,175.6577,111.2318,48.287,0.00011478,0.00015529,0.0,0 STARLINK-5000,1 53935U 22119BB  22283.58334491  .00015529  00000-0  11478-3 0  9990,2 53935  53.2178 175.6577 0001041 111.2318  48.2870 15.73215391  2899,6727.851,91.532,350.417,349.016,0.0
53935.0,STARLINK-5000,PAYLOAD,2022-10-10 20:00:01,15.73364382,0.0001151,53.2176,174.4149,106.6369,29.5745,-0.0029861999999999,-0.00403075,0.0,0 STARLINK-5000,1 53935U 22119BB  22283.83334491 -.00403075  00000-0 -29862-2 0  9992,2 53935  53.2176 174.4149 0001151 106.6369  29.5745 15.73364382  2938,6727.427,91.524,350.066,348.517,0.0
53935.0,STARLINK-5000,PAYLOAD,2022-10-10 22:00:01,15.73349213,0.0001100999999999,53.2177,174.0013,104.7515,143.7759,-0.0037579999999999,-0.00500973,0.0,0 STARLINK-5000,1 53935U 22119BB  22283.91668981 -.00500973  00000-0 -37580-2 0  9996,2 53935  53.2177 174.0013 0001101 104.7515 143.7759 15.73349213  1302,6727.47,91.524,350.075,348.594,0.0
53935.0,STARLINK-5000,PAYLOAD,2022-10-11 06:00:00,15.73154798,0.0001163,53.217,172.3554,90.4006,246.9199,0.00014397,0.00019594,0.0,0 STARLINK-5000,1 53935U 22119BB  22284.25001157  .00019594  00000-0  14397-3 0  9994,2 53935  53.2170 172.3554 0001163  90.4006 246.9199 15.73154798  2992,6728.024,91.536,350.672,349.107,0.0
53935.0,STARLINK-5000,PAYLOAD,2022-10-11 14:00:01,15.73106134,0.0001155,53.2175,170.6952,98.525,327.6856,0.0011103,0.00157523,0.0,0 STARLINK-5000,1 53935U 22119BB  22284.58334491  .00157523  00000-0  11103-2 0  9996,2 53935  53.2175 170.6952 0001155  98.5250 327.6856 15.73106134  1303,6728.163000000001,91.539,350.805,349.251,0.0
53935.0,STARLINK-5000,PAYLOAD,2022-10-11 20:00:01,15.7321182,0.0001313,53.2178,169.475,101.4322,301.4131,8.321700000000001e-05,0.0001107999999999,0.0,0 STARLINK-5000,1 53935U 22119BB  22284.83335648  .00011080  00000-0  83217-4 0  9993,2 53935  53.2178 169.4750 0001313 101.4322 301.4131 15.73211820  3091,6727.861,91.532,350.61,348.843,0.0
53935.0,STARLINK-5000,PAYLOAD,2022-10-11 22:00:00,15.73209687,0.0001296,53.2176,169.0633,97.1924,57.8238,0.00016625,0.00022785,0.0,0 STARLINK-5000,1 53935U 22119BB  22284.91667824  .00022785  00000-0  16625-3 0  9998,2 53935  53.2176 169.0633 0001296  97.1924  57.8238 15.73209687  1304,6727.868,91.533,350.60400000000016,348.861,0.0
53935.0,STARLINK-5000,PAYLOAD,2022-10-12 14:00:01,15.73201961,0.0001129,53.2172,165.7518,101.8694,231.0259,0.00071335,0.00100709,0.0,0 STARLINK-5000,1 53935U 22119BB  22285.58334491  .00100709  00000-0  71335-3 0  9995,2 53935  53.2172 165.7518 0001129 101.8694 231.0259 15.73201961  1303,6727.89,91.533,350.514,348.995,0.0
53935.0,STARLINK-5000,PAYLOAD,2022-10-12 20:00:01,15.73294959,0.0001267,53.2175,164.5111,95.5356,214.0812,-0.00098273,-0.00136873,0.0,0 STARLINK-5000,1 53935U 22119BB  22285.83334491 -.00136873  00000-0 -98273-3 0  9996,2 53935  53.2175 164.5111 0001267  95.5356 214.0812 15.73294959  3249,6727.624,91.528,350.342,348.63699999999994,0.0
53935.0,STARLINK-5000,PAYLOAD,2022-10-12 22:00:00,15.73226962,0.0001273,53.2175,164.0978,91.1825,330.7061,-0.00026956,-0.00038322,0.0,0 STARLINK-5000,1 53935U 22119BB  22285.91667824 -.00038322  00000-0 -26956-3 0  9993,2 53935  53.2175 164.0978 0001273  91.1825 330.7061 15.73226962  1301,6727.818,91.532,350.54,348.827,0.0
53935.0,STARLINK-5000,PAYLOAD,2022-10-13 06:00:00,15.73205718,0.0001279,53.2172,162.4462,88.29,62.5441,-2.2046e-05,-3.713e-05,0.0,0 STARLINK-5000,1 53935U 22119BB  22286.25001157 -.00003713  00000-0 -22046-4 0  9995,2 53935  53.2172 162.4462 0001279  88.2900  62.5441 15.73205718  3316,6727.879,91.533,350.60400000000016,348.8830000000001,0.0
53935.0,STARLINK-5000,PAYLOAD,2022-10-13 14:00:01,15.72972347,0.0001395,53.2168,160.7997,99.9643,139.951,0.0022236,0.00320523,0.0,0 STARLINK-5000,1 53935U 22119BB  22286.58334491  .00320523  00000-0  22236-2 0  9999,2 53935  53.2168 160.7997 0001395  99.9643 139.9510 15.72972347  1308,6728.544,91.546,351.348,349.471,0.0
53935.0,STARLINK-5000,PAYLOAD,2022-10-13 22:00:00,15.7297214,0.0001052,53.2174,159.1486,90.6252,238.1943,0.0025995,0.00377404,0.0,0 STARLINK-5000,1 53935U 22119BB  22286.91667824  .00377404  00000-0  25995-2 0  9990,2 53935  53.2174 159.1486 0001052  90.6252 238.1943 15.72972140  1307,6728.545,91.546,351.11800000000005,349.702,0.0
53935.0,STARLINK-5000,PAYLOAD,2022-10-14 06:00:00,15.73235086,0.0001215,53.2168,157.507,95.0453,322.6806,-0.0013624,-0.00187895,0.0,0 STARLINK-5000,1 53935U 22119BB  22287.25001157 -.00187895  00000-0 -13624-2 0  9990,2 53935  53.2168 157.5070 0001215  95.0453 322.6806 15.73235086  3473,6727.795,91.531,350.478,348.843,0.0
53935.0,STARLINK-5000,PAYLOAD,2022-10-14 14:00:01,15.73129287,0.0001537,53.2173,155.8492,102.6719,43.9352,0.00085287,0.00120439,0.0,0 STARLINK-5000,1 53935U 22119BB  22287.58334491  .00120439  00000-0  85287-3 0  9990,2 53935  53.2173 155.8492 0001537 102.6719  43.9352 15.73129287  3525,6728.097,91.537,350.996,348.92800000000005,0.0
53935.0,STARLINK-5000,PAYLOAD,2022-10-14 20:00:01,15.73203159,0.0001524,53.2174,154.6105,98.9736,24.2991,1.5799000000000002e-05,1.598e-05,0.0,0 STARLINK-5000,1 53935U 22119BB  22287.83334491  .00001598  00000-0  15799-4 0  9994,2 53935  53.2174 154.6105 0001524  98.9736  24.2991 15.73203159  3562,6727.886,91.533,350.776,348.726,0.0
53935.0,STARLINK-5000,PAYLOAD,2022-10-15 14:00:01,15.73199942,0.0001154,53.2166,150.9174,114.1643,299.407,7.916100000000001e-05,0.00010504,0.0,0 STARLINK-5000,1 53935U 22119BB  22288.58334491  .00010504  00000-0  79161-4 0  9997,2 53935  53.2166 150.9174 0001154 114.1643 299.4070 15.73199942  3686,6727.895,91.533,350.537,348.9840000000001,0.0
53935.0,STARLINK-5000,PAYLOAD,2022-10-15 20:00:01,15.73231022,9.86e-05,53.2167,149.6819,105.6569,284.6605,-0.0010735,-0.00148834,0.0,0 STARLINK-5000,1 53935U 22119BB  22288.83335648 -.00148834  00000-0 -10735-2 0  9990,2 53935  53.2167 149.6819 0000986 105.6569 284.6605 15.73231022  3712,6727.807,91.531,350.335,349.0080000000001,0.0
53935.0,STARLINK-5000,PAYLOAD,2022-10-15 22:00:01,15.73193749,9.68e-05,53.2167,149.2699,101.2368,41.3202,-0.00083066,-0.00115574,0.0,0 STARLINK-5000,1 53935U 22119BB  22288.91668981 -.00115574  00000-0 -83066-3 0  9991,2 53935  53.2167 149.2699 0000968 101.2368  41.3202 15.73193749  1300,6727.913000000001,91.534,350.42900000000014,349.12699999999984,0.0
53935.0,STARLINK-5000,PAYLOAD,2022-10-16 04:00:00,15.7310631,7.269999999999999e-05,53.2166,148.033,101.4757,17.6854,0.00028673,0.00039649,0.0,0 STARLINK-5000,1 53935U 22119BB  22289.16667824  .00039649  00000-0  28673-3 0  9993,2 53935  53.2166 148.0330 0000727 101.4757  17.6854 15.73106310  3775,6728.1619999999975,91.539,350.516,349.538,0.0
53935.0,STARLINK-5000,PAYLOAD,2022-10-16 14:00:01,15.73150333,8.3e-05,53.2167,145.9697,118.658,201.5516,0.00060451,0.00084898,0.0,0 STARLINK-5000,1 53935U 22119BB  22289.58334491  .00084898  00000-0  60451-3 0  9996,2 53935  53.2167 145.9697 0000830 118.6580 201.5516 15.73150333  1307,6728.0369999999975,91.536,350.46,349.343,0.0
53935.0,STARLINK-5000,PAYLOAD,2022-10-16 20:00:01,15.73220346,8.47e-05,53.2165,144.7334,102.9303,193.9501,-0.00046204,-0.00065018,0.0,0 STARLINK-5000,1 53935U 22119BB  22289.83334491 -.00065018  00000-0 -46204-3 0  9999,2 53935  53.2165 144.7334 0000847 102.9303 193.9501 15.73220346  3871,6727.837,91.532,350.272,349.13199999999995,0.0
53935.0,STARLINK-5000,PAYLOAD,2022-10-16 22:00:00,15.73188467,8.740000000000001e-05,53.2166,144.319,99.9967,309.1258,-4.808600000000002e-05,-7.358e-05,0.0,0 STARLINK-5000,1 53935U 22119BB  22289.91667824 -.00007358  00000-0 -48086-4 0  9991,2 53935  53.2166 144.3190 0000874  99.9967 309.1258 15.73188467  1302,6727.928000000001,91.534,350.381,349.205,0.0
53935.0,STARLINK-5000,PAYLOAD,2022-10-17 12:00:00,15.73193248,0.0001001,53.2163,141.4337,113.7575,0.9906,0.00040596,0.00056722,0.0,0 STARLINK-5000,1 53935U 22119BB  22290.50001157  .00056722  00000-0  40596-3 0  9993,2 53935  53.2163 141.4337 0001001 113.7575   0.9906 15.73193248  3988,6727.9140000000025,91.534,350.45300000000015,349.106,0.0
53935.0,STARLINK-5000,PAYLOAD,2022-10-17 14:00:01,15.73189224,0.0001064,53.2163,141.0204,112.5006,114.4834,0.00063678,0.00089664,0.0,0 STARLINK-5000,1 53935U 22119BB  22290.58334491  .00089664  00000-0  63678-3 0  9998,2 53935  53.2163 141.0204 0001064 112.5006 114.4834 15.73189224  1306,6727.926,91.534,350.50699999999995,349.075,0.0
53935.0,STARLINK-5000,PAYLOAD,2022-10-17 22:00:00,15.73219998,9.76e-05,53.2167,139.3744,97.781,218.115,-0.00017452,-0.00025059,0.0,0 STARLINK-5000,1 53935U 22119BB  22290.91667824 -.00025059  00000-0 -17452-3 0  9993,2 53935  53.2167 139.3744 0000976  97.7810 218.1150 15.73219998  4046,6727.8380000000025,91.532,350.36,349.047,0.0
53935.0,STARLINK-5000,PAYLOAD,2022-10-18 14:00:01,15.73163472,0.0001219,53.2168,136.0737,104.4982,29.2792,0.00012089,0.00016353,0.0,0 STARLINK-5000,1 53935U 22119BB  22291.58334491  .00016353  00000-0  12089-3 0  9994,2 53935  53.2168 136.0737 0001219 104.4982  29.2792 15.73163472  1304,6727.999,91.535,350.684,349.0440000000001,0.0
